[{"OBJECT_NAME":"STARLINK-31018","OBJECT_ID":"2023-203T","EPOCH":"2026-03-09T00:11:04.282944","MEAN_MOTION":15.27567475,"ECCENTRICITY":0.00017451,"INCLINATION":43.0031,"RA_OF_ASC_NODE":71.2406,"ARG_OF_PERICENTER":269.61,"MEAN_ANOMALY":90.4552,"EPHEMERIS_TYPE":0,"CLASSIFICATION_TYPE":"U","NORAD_CAT_ID":58635,"ELEMENT_SET_NO":999,"REV_AT_EPOCH":12468,"BSTAR":-0.00011530072,"MEAN_MOTION_DOT":-3.432e-5,"MEAN_MOTION_DDOT":0},{"OBJECT_NAME":"SL-3 R\/B","OBJECT_ID":"1982-079B","EPOCH":"2026-03-09T22:18:18.158976","MEAN_MOTION":15.24805533,"ECCENTRICITY":0.00250364,"INCLINATION":81.1481,"RA_OF_ASC_NODE":192.7939,"ARG_OF_PERICENTER":164.0597,"MEAN_ANOMALY":196.143,"EPHEMERIS_TYPE":0,"CLASSIFICATION_TYPE":"U","NORAD_CAT_ID":13403,"ELEMENT_SET_NO":999,"REV_AT_EPOCH":37773,"BSTAR":0.00032485557,"MEAN_MOTION_DOT":8.157e-5,"MEAN_MOTION_DDOT":0}]
